start=new Date('2022-02-19T00:00:00.000Z').valueOf();
sats=[{"TLE_LINE1":"1 45689U 20035AJ  22049.81967781  .00000130  00000-0  27653-4 0  9997","OBJECT_NAME":"STARLINK-1413","APOAPSIS":"548.309","EPHEMERIS_TYPE":"0","COUNTRY_CODE":"US","NORAD_CAT_ID":"45689","ECCENTRICITY":"0.00015940","DECAY_DATE":null,"ARG_OF_PERICENTER":"73.9559","CENTER_NAME":"EARTH","CLASSIFICATION_TYPE":"U","FILE":"3307132","BSTAR":"0.00002765300000","LAUNCH_DATE":"2020-06-04","MEAN_MOTION_DDOT":"0.0000000000000","TIME_SYSTEM":"UTC","PERIAPSIS":"546.102","ELEMENT_SET_NO":"999","REF_FRAME":"TEME","GP_ID":"196330334","EPOCH":"2022-02-18T19:40:20.162784","TLE_LINE2":"2 45689  53.0548 220.0099 0001594  73.9559 286.1606 15.06402631 95739","OBJECT_ID":"2020-035AJ","MEAN_ANOMALY":"286.1606","REV_AT_EPOCH":"9573","MEAN_MOTION_DOT":"0.00000130","MEAN_ELEMENT_THEORY":"SGP4","SEMIMAJOR_AXIS":"6925.340","RCS_SIZE":"LARGE","OBJECT_TYPE":"PAYLOAD","INCLINATION":"53.0548","RA_OF_ASC_NODE":"220.0099","SITE":"AFETR","PERIOD":"95.592","MEAN_MOTION":"15.06402631"},{"CENTER_NAME":"EARTH","FILE":"3307132","BSTAR":"0.00001006300000","CLASSIFICATION_TYPE":"U","TLE_LINE1":"1 45690U 20035AK  22049.86756139 -.00000133  00000-0  10063-4 0  9998","OBJECT_NAME":"STARLINK-1414","APOAPSIS":"550.768","EPHEMERIS_TYPE":"0","COUNTRY_CODE":"US","ECCENTRICITY":"0.00015430","NORAD_CAT_ID":"45690","ARG_OF_PERICENTER":"80.0278","DECAY_DATE":null,"PERIAPSIS":"548.630","ELEMENT_SET_NO":"999","LAUNCH_DATE":"2020-06-04","MEAN_MOTION_DDOT":"0.0000000000000","TIME_SYSTEM":"UTC","TLE_LINE2":"2 45690  52.9995 219.8109 0001543  80.0278 280.0884 15.05589402 95792","OBJECT_ID":"2020-035AK","REV_AT_EPOCH":"9579","MEAN_ANOMALY":"280.0884","REF_FRAME":"TEME","GP_ID":"196330584","EPOCH":"2022-02-18T20:49:17.304096","RA_OF_ASC_NODE":"219.8109","SITE":"AFETR","PERIOD":"95.644","MEAN_MOTION":"15.05589402","MEAN_ELEMENT_THEORY":"SGP4","MEAN_MOTION_DOT":"-0.00000133","SEMIMAJOR_AXIS":"6927.834","RCS_SIZE":"LARGE","OBJECT_TYPE":"PAYLOAD","INCLINATION":"52.9995"},{"CENTER_NAME":"EARTH","BSTAR":"0.00009817300000","FILE":"3307132","CLASSIFICATION_TYPE":"U","COUNTRY_CODE":"US","ECCENTRICITY":"0.00014570","NORAD_CAT_ID":"45691","EPHEMERIS_TYPE":"0","DECAY_DATE":null,"ARG_OF_PERICENTER":"73.7512","OBJECT_NAME":"STARLINK-1415","TLE_LINE1":"1 45691U 20035AL  22049.73857400  .00001182  00000-0  98173-4 0  9990","APOAPSIS":"548.184","ELEMENT_SET_NO":"999","PERIAPSIS":"546.166","TIME_SYSTEM":"UTC","LAUNCH_DATE":"2020-06-04","MEAN_MOTION_DDOT":"0.0000000000000","OBJECT_ID":"2020-035AL","REV_AT_EPOCH":"9581","MEAN_ANOMALY":"286.3638","TLE_LINE2":"2 45691  53.0527 220.3863 0001457  73.7512 286.3638 15.06412537 95818","EPOCH":"2022-02-18T17:43:32.793600","REF_FRAME":"TEME","GP_ID":"196331835","MEAN_MOTION":"15.06412537","PERIOD":"95.591","RA_OF_ASC_NODE":"220.3863","SITE":"AFETR","RCS_SIZE":"LARGE","SEMIMAJOR_AXIS":"6925.310","INCLINATION":"53.0527","OBJECT_TYPE":"PAYLOAD","MEAN_MOTION_DOT":"0.00001182","MEAN_ELEMENT_THEORY":"SGP4"},{"REF_FRAME":"TEME","GP_ID":"196331583","EPOCH":"2022-02-18T20:44:01.474080","TLE_LINE2":"2 45692  53.0541 219.8266 0001451  73.2396 286.8752 15.06396592 95829","OBJECT_ID":"2020-035AM","REV_AT_EPOCH":"9582","MEAN_ANOMALY":"286.8752","MEAN_MOTION_DOT":"0.00000431","MEAN_ELEMENT_THEORY":"SGP4","RCS_SIZE":"LARGE","SEMIMAJOR_AXIS":"6925.359","INCLINATION":"53.0541","OBJECT_TYPE":"PAYLOAD","RA_OF_ASC_NODE":"219.8266","SITE":"AFETR","MEAN_MOTION":"15.06396592","PERIOD":"95.592","OBJECT_NAME":"STARLINK-1416","TLE_LINE1":"1 45692U 20035AM  22049.86390595  .00000431  00000-0  47856-4 0  9990","APOAPSIS":"548.229","NORAD_CAT_ID":"45692","COUNTRY_CODE":"US","ECCENTRICITY":"0.00014510","EPHEMERIS_TYPE":"0","DECAY_DATE":null,"ARG_OF_PERICENTER":"73.2396","CENTER_NAME":"EARTH","FILE":"3307132","BSTAR":"0.00004785600000","CLASSIFICATION_TYPE":"U","LAUNCH_DATE":"2020-06-04","MEAN_MOTION_DDOT":"0.0000000000000","TIME_SYSTEM":"UTC","PERIAPSIS":"546.219","ELEMENT_SET_NO":"999"},{"APOAPSIS":"548.244","OBJECT_NAME":"STARLINK-1417","TLE_LINE1":"1 45693U 20035AN  22049.88233207  .00000572  00000-0  57333-4 0  9996","ARG_OF_PERICENTER":"62.4069","DECAY_DATE":null,"ECCENTRICITY":"0.00014460","COUNTRY_CODE":"US","NORAD_CAT_ID":"45693","EPHEMERIS_TYPE":"0","CLASSIFICATION_TYPE":"U","FILE":"3307132","BSTAR":"0.00005733300000","CENTER_NAME":"EARTH","MEAN_MOTION_DDOT":"0.0000000000000","LAUNCH_DATE":"2020-06-04","TIME_SYSTEM":"UTC","PERIAPSIS":"546.241","ELEMENT_SET_NO":"999","REF_FRAME":"TEME","GP_ID":"196330834","EPOCH":"2022-02-18T21:10:33.490848","TLE_LINE2":"2 45693  53.0539 219.7365 0001446  62.4069 297.7067 15.06390605 95826","MEAN_ANOMALY":"297.7067","REV_AT_EPOCH":"9582","OBJECT_ID":"2020-035AN","MEAN_ELEMENT_THEORY":"SGP4","MEAN_MOTION_DOT":"0.00000572","INCLINATION":"53.0539","OBJECT_TYPE":"PAYLOAD","RCS_SIZE":"LARGE","SEMIMAJOR_AXIS":"6925.377","SITE":"AFETR","RA_OF_ASC_NODE":"219.7365","MEAN_MOTION":"15.06390605","PERIOD":"95.593"},{"TLE_LINE2":"2 45694  53.0525 219.6912 0001900  71.9549 288.1647 15.06411904 95826","MEAN_ANOMALY":"288.1647","REV_AT_EPOCH":"9582","OBJECT_ID":"2020-035AP","REF_FRAME":"TEME","GP_ID":"196331084","EPOCH":"2022-02-18T21:21:10.860192","SITE":"AFETR","RA_OF_ASC_NODE":"219.6912","MEAN_MOTION":"15.06411904","PERIOD":"95.591","MEAN_MOTION_DOT":"0.00003066","MEAN_ELEMENT_THEORY":"SGP4","INCLINATION":"53.0525","OBJECT_TYPE":"PAYLOAD","RCS_SIZE":"LARGE","SEMIMAJOR_AXIS":"6925.312","FILE":"3307132","BSTAR":"0.00022456000000","CLASSIFICATION_TYPE":"U","CENTER_NAME":"EARTH","APOAPSIS":"548.493","OBJECT_NAME":"STARLINK-1419","TLE_LINE1":"1 45694U 20035AP  22049.88970903  .00003066  00000-0  22456-3 0  9996","DECAY_DATE":null,"ARG_OF_PERICENTER":"71.9549","ECCENTRICITY":"0.00019000","COUNTRY_CODE":"US","NORAD_CAT_ID":"45694","EPHEMERIS_TYPE":"0","PERIAPSIS":"545.861","ELEMENT_SET_NO":"999","MEAN_MOTION_DDOT":"0.0000000000000","LAUNCH_DATE":"2020-06-04","TIME_SYSTEM":"UTC"},{"REV_AT_EPOCH":"9608","MEAN_ANOMALY":"288.0432","OBJECT_ID":"2020-035AQ","TLE_LINE2":"2 45695  53.0533 200.6084 0001768  72.0750 288.0432 15.06398845 96082","EPOCH":"2022-02-18T16:26:36.643776","GP_ID":"196331336","REF_FRAME":"TEME","PERIOD":"95.592","MEAN_MOTION":"15.06398845","SITE":"AFETR","RA_OF_ASC_NODE":"200.6084","OBJECT_TYPE":"PAYLOAD","INCLINATION":"53.0533","SEMIMAJOR_AXIS":"6925.352","RCS_SIZE":"LARGE","MEAN_MOTION_DOT":"0.00002408","MEAN_ELEMENT_THEORY":"SGP4","BSTAR":"0.00018052000000","FILE":"3307132","CLASSIFICATION_TYPE":"U","CENTER_NAME":"EARTH","ARG_OF_PERICENTER":"72.0750","DECAY_DATE":null,"EPHEMERIS_TYPE":"0","COUNTRY_CODE":"US","ECCENTRICITY":"0.00017680","NORAD_CAT_ID":"45695","APOAPSIS":"548.442","TLE_LINE1":"1 45695U 20035AQ  22049.68514634  .00002408  00000-0  18052-3 0  9996","OBJECT_NAME":"STARLINK-1420","ELEMENT_SET_NO":"999","PERIAPSIS":"545.993","TIME_SYSTEM":"UTC","MEAN_MOTION_DDOT":"0.0000000000000","LAUNCH_DATE":"2020-06-04"},{"EPOCH":"2022-02-18T18:15:23.962464","REF_FRAME":"TEME","GP_ID":"196332083","MEAN_ANOMALY":"306.7220","REV_AT_EPOCH":"9580","OBJECT_ID":"2020-035AR","TLE_LINE2":"2 45696  53.0536 220.2730 0002115  53.3963 306.7220 15.06401308 95808","OBJECT_TYPE":"PAYLOAD","INCLINATION":"53.0536","SEMIMAJOR_AXIS":"6925.345","RCS_SIZE":"LARGE","MEAN_ELEMENT_THEORY":"SGP4","MEAN_MOTION_DOT":"0.00002008","PERIOD":"95.592","MEAN_MOTION":"15.06401308","SITE":"AFETR","RA_OF_ASC_NODE":"220.2730","DECAY_DATE":null,"ARG_OF_PERICENTER":"53.3963","EPHEMERIS_TYPE":"0","ECCENTRICITY":"0.00021150","COUNTRY_CODE":"US","NORAD_CAT_ID":"45696","APOAPSIS":"548.674","TLE_LINE1":"1 45696U 20035AR  22049.76069401  .00002008  00000-0  15365-3 0  9993","OBJECT_NAME":"STARLINK-1422","CLASSIFICATION_TYPE":"U","FILE":"3307132","BSTAR":"0.00015365000000","CENTER_NAME":"EARTH","TIME_SYSTEM":"UTC","MEAN_MOTION_DDOT":"0.0000000000000","LAUNCH_DATE":"2020-06-04","ELEMENT_SET_NO":"999","PERIAPSIS":"545.745"},{"OBJECT_ID":"2020-035AS","MEAN_ANOMALY":"273.1119","REV_AT_EPOCH":"9610","TLE_LINE2":"2 45697  53.0544 200.0892 0001337  87.0023 273.1119 15.06403296 96105","EPOCH":"2022-02-18T19:16:25.416480","GP_ID":"196330335","REF_FRAME":"TEME","PERIOD":"95.592","MEAN_MOTION":"15.06403296","RA_OF_ASC_NODE":"200.0892","SITE":"AFETR","SEMIMAJOR_AXIS":"6925.338","RCS_SIZE":"LARGE","OBJECT_TYPE":"PAYLOAD","INCLINATION":"53.0544","MEAN_ELEMENT_THEORY":"SGP4","MEAN_MOTION_DOT":"0.00000230","CENTER_NAME":"EARTH","FILE":"3307132","BSTAR":"0.00003431300000","CLASSIFICATION_TYPE":"U","EPHEMERIS_TYPE":"0","NORAD_CAT_ID":"45697","COUNTRY_CODE":"US","ECCENTRICITY":"0.00013370","ARG_OF_PERICENTER":"87.0023","DECAY_DATE":null,"TLE_LINE1":"1 45697U 20035AS  22049.80307195  .00000230  00000-0  34313-4 0  9994","OBJECT_NAME":"STARLINK-1351","APOAPSIS":"548.129","ELEMENT_SET_NO":"999","PERIAPSIS":"546.278","TIME_SYSTEM":"UTC","LAUNCH_DATE":"2020-06-04","MEAN_MOTION_DDOT":"0.0000000000000"},{"RCS_SIZE":"LARGE","SEMIMAJOR_AXIS":"6925.353","INCLINATION":"53.0567","OBJECT_TYPE":"PAYLOAD","MEAN_ELEMENT_THEORY":"SGP4","MEAN_MOTION_DOT":"-0.00002604","MEAN_MOTION":"15.06398680","PERIOD":"95.592","RA_OF_ASC_NODE":"200.1467","SITE":"AFETR","EPOCH":"2022-02-18T19:00:31.357440","REF_FRAME":"TEME","GP_ID":"196330585","OBJECT_ID":"2020-035AT","MEAN_ANOMALY":"287.3529","REV_AT_EPOCH":"9610","TLE_LINE2":"2 45698  53.0567 200.1467 0001518  72.7626 287.3529 15.06398680 96103","TIME_SYSTEM":"UTC","LAUNCH_DATE":"2020-06-04","MEAN_MOTION_DDOT":"0.0000000000000","ELEMENT_SET_NO":"999","PERIAPSIS":"546.166","COUNTRY_CODE":"US","NORAD_CAT_ID":"45698","ECCENTRICITY":"0.00015180","EPHEMERIS_TYPE":"0","DECAY_DATE":null,"ARG_OF_PERICENTER":"72.7626","OBJECT_NAME":"STARLINK-1370","TLE_LINE1":"1 45698U 20035AT  22049.79202960 -.00002604  00000-0 -15601-3 0  9994","APOAPSIS":"548.269","CENTER_NAME":"EARTH","FILE":"3307132","CLASSIFICATION_TYPE":"U","BSTAR":"-0.00015601000000"}];
